NORAD_CAT_ID,OBJECT_NAME,OBJECT_TYPE,EPOCH,MEAN_MOTION,ECCENTRICITY,INCLINATION,RA_OF_ASC_NODE,ARG_OF_PERICENTER,MEAN_ANOMALY,BSTAR,MEAN_MOTION_DOT,MEAN_MOTION_DDOT,TLE_LINE0,TLE_LINE1,TLE_LINE2,SEMIMAJOR_AXIS,PERIOD,APOGEE,PERIGEE,DECAYED
54012.0,STARLINK-5126,PAYLOAD,2023-08-19 21:21:57,15.08835196,0.0001582,53.2154,71.4955,90.5187,269.5986,0.00010368,1.362e-05,0.0,0 STARLINK-5126,1 54012U 22125BA  23231.89024432  .00001362  00000-0  10368-3 0  9990,2 54012  53.2154  71.4955 0001582  90.5187 269.5986 15.08835196 48835,6917.895,95.438,540.854,538.666,0.0
54012.0,STARLINK-5126,PAYLOAD,2023-08-20 22:48:06,15.08847182,0.0001361,53.2162,66.7372,91.5224,268.5924,0.00017355,2.476e-05,0.0,0 STARLINK-5126,1 54012U 22125BA  23232.95007631  .00002476  00000-0  17355-3 0  9990,2 54012  53.2162  66.7372 0001361  91.5224 268.5924 15.08847182 48998,6917.858,95.437,540.665,538.782,0.0
54012.0,STARLINK-5126,PAYLOAD,2023-08-21 17:52:45,15.08839267,0.000121,53.2171,63.1683,92.0371,268.076,1.6056e-05,-3.2e-07,0.0,0 STARLINK-5126,1 54012U 22125BA  23233.74496698 -.00000032  00000-0  16056-4 0  9998,2 54012  53.2171  63.1683 0001210  92.0371 268.0760 15.08839267 49119,6917.883,95.438,540.585,538.911,0.0
54012.0,STARLINK-5126,PAYLOAD,2023-08-22 20:54:18,15.0884248,0.0001178,53.2177,58.1127,93.7237,266.389,1.8616e-05,8e-08,0.0,0 STARLINK-5126,1 54012U 22125BA  23234.87104506  .00000008  00000-0  18616-4 0  9993,2 54012  53.2177  58.1127 0001178  93.7237 266.3890 15.08842480 49288,6917.873,95.437,540.553,538.923,0.0
54012.0,STARLINK-5126,PAYLOAD,2023-08-23 12:48:10,15.08834366,0.0001189,53.218,55.1392,98.1519,261.9608,4.8483e-05,4.84e-06,0.0,0 STARLINK-5126,1 54012U 22125BA  23235.53345109  .00000484  00000-0  48483-4 0  9996,2 54012  53.2180  55.1392 0001189  98.1519 261.9608 15.08834366 49380,6917.898,95.438,540.585,538.94,0.0
54012.0,STARLINK-5126,PAYLOAD,2023-08-24 14:14:20,15.08837465,0.0001224,53.2177,50.3809,92.8616,267.2516,0.00011721,1.578e-05,0.0,0 STARLINK-5126,1 54012U 22125BA  23236.59328923  .00001578  00000-0  11721-3 0  9997,2 54012  53.2177  50.3809 0001224  92.8616 267.2516 15.08837465 49543,6917.888,95.438,540.6,538.906,0.0
54012.0,STARLINK-5126,PAYLOAD,2023-08-25 10:54:21,15.08838824,0.0001203,53.2178,46.5153,93.2681,266.8449,7.3943e-05,8.89e-06,0.0,0 STARLINK-5126,1 54012U 22125BA  23237.45441151  .00000889  00000-0  73943-4 0  9991,2 54012  53.2178  46.5153 0001203  93.2681 266.8449 15.08838824 49626,6917.884,95.438,540.581,538.917,0.0
54012.0,STARLINK-5126,PAYLOAD,2023-08-25 18:51:16,15.08842365,0.0001232,53.2177,45.0291,92.3072,267.8062,9.7789e-05,1.269e-05,0.0,0 STARLINK-5126,1 54012U 22125BA  23237.78560879  .00001269  00000-0  97789-4 0  9993,2 54012  53.2177  45.0291 0001232  92.3072 267.8062 15.08842365 49726,6917.873,95.437,540.59,538.886,0.0
54012.0,STARLINK-5126,PAYLOAD,2023-08-26 10:45:08,15.08838203,0.0001268,53.2173,42.0562,89.9413,270.1725,4.0848e-05,3.62e-06,0.0,0 STARLINK-5126,1 54012U 22125BA  23238.44801379  .00000362  00000-0  40848-4 0  9997,2 54012  53.2173  42.0562 0001268  89.9413 270.1725 15.08838203 49820,6917.886,95.438,540.628,538.874,0.0
54012.0,STARLINK-5126,PAYLOAD,2023-08-26 12:20:31,15.08839005,0.0001288,53.2174,41.759,89.1743,270.9397,4.5025e-05,4.29e-06,0.0,0 STARLINK-5126,1 54012U 22125BA  23238.51425313  .00000429  00000-0  45025-4 0  9991,2 54012  53.2174  41.7590 0001288  89.1743 270.9397 15.08839005 49787,6917.883,95.438,540.639,538.857,0.0
54012.0,STARLINK-5126,PAYLOAD,2023-08-26 18:42:03,15.08844259,0.000127,53.2176,40.5696,89.354,270.7597,8.3761e-05,1.046e-05,0.0,0 STARLINK-5126,1 54012U 22125BA  23238.77920849  .00001046  00000-0  83761-4 0  9998,2 54012  53.2176  40.5696 0001270  89.3540 270.7597 15.08844259 49823,6917.867,95.437,540.611,538.854,0.0
54012.0,STARLINK-5126,PAYLOAD,2023-08-27 16:57:27,15.08843985,0.0001258,53.2177,36.4068,88.4394,271.6743,8.5294e-05,1.07e-05,0.0,0 STARLINK-5126,1 54012U 22125BA  23239.70656812  .00001070  00000-0  85294-4 0  9998,2 54012  53.2177  36.4068 0001258  88.4394 271.6743 15.08843985 49967,6917.868,95.437,540.603,538.863,0.0
54012.0,STARLINK-5126,PAYLOAD,2023-08-28 04:05:09,15.0884165,0.0001228,53.2179,34.3253,91.1958,268.9175,8.8705e-05,1.124e-05,0.0,0 STARLINK-5126,1 54012U 22125BA  23240.17024874  .00001124  00000-0  88705-4 0  9998,2 54012  53.2179  34.3253 0001228  91.1958 268.9175 15.08841650 50086,6917.875,95.437,540.59,538.891,0.0
54012.0,STARLINK-5126,PAYLOAD,2023-08-28 19:59:00,15.08844702,0.0001349,53.218,31.3512,100.4253,259.6891,5.7248e-05,6.23e-06,0.0,0 STARLINK-5126,1 54012U 22125BA  23240.83264739  .00000623  00000-0  57248-4 0  9998,2 54012  53.2180  31.3512 0001349 100.4253 259.6891 15.08844702 50138,6917.866,95.437,540.664,538.798,0.0
54012.0,STARLINK-5126,PAYLOAD,2023-08-29 16:39:02,15.08840435,0.0001356,53.2181,27.484,108.2877,251.8262,-1.1942e-05,-4.78e-06,0.0,0 STARLINK-5126,1 54012U 22125BA  23241.69377339 -.00000478  00000-0 -11942-4 0  9995,2 54012  53.2181  27.4840 0001356 108.2877 251.8262 15.08840435 50310,6917.879,95.438,540.682,538.806,0.0
54012.0,STARLINK-5126,PAYLOAD,2023-08-30 16:29:48,15.08840579,0.0001338,53.2171,23.0269,92.8035,267.3111,0.00010548,1.391e-05,0.0,0 STARLINK-5126,1 54012U 22125BA  23242.68737260  .00001391  00000-0  10548-3 0  9991,2 54012  53.2171  23.0269 0001338  92.8035 267.3111 15.08840579 50415,6917.879,95.438,540.669,538.818,0.0
54012.0,STARLINK-5126,PAYLOAD,2023-08-31 02:02:08,15.08839103,0.0001295,53.2164,21.2439,80.1137,280.0002,3.4353e-05,2.59e-06,0.0,0 STARLINK-5126,1 54012U 22125BA  23243.08481510  .00000259  00000-0  34353-4 0  9993,2 54012  53.2164  21.2439 0001295  80.1137 280.0002 15.08839103 50525,6917.883,95.438,540.644,538.852,0.0
54012.0,STARLINK-5126,PAYLOAD,2023-08-31 11:34:27,15.08835156,0.000152,53.2182,19.4561,86.6623,273.4543,1.6593e-05,-2.4e-07,0.0,0 STARLINK-5126,1 54012U 22125BA  23243.48226119 -.00000024  00000-0  16593-4 0  9996,2 54012  53.2182  19.4561 0001520  86.6623 273.4543 15.08835156 50588,6917.895,95.438,540.812,538.709,0.0
54012.0,STARLINK-5126,PAYLOAD,2023-09-01 08:14:28,15.08795181,0.000189,53.2164,15.5936,91.1573,268.9635,0.00065749,0.00010179,0.0,0 STARLINK-5126,1 54012U 22125BA  23244.34338020  .00010179  00000-0  65749-3 0  9994,2 54012  53.2164  15.5936 0001890  91.1573 268.9635 15.08795181 50715,6918.017,95.44,541.19,538.575,0.0
54012.0,STARLINK-5126,PAYLOAD,2023-09-01 11:25:15,15.08797042,0.0001825,53.2175,14.9964,91.0429,269.0772,0.00048615,7.449e-05,0.0,0 STARLINK-5126,1 54012U 22125BA  23244.47586862  .00007449  00000-0  48615-3 0  9996,2 54012  53.2175  14.9964 0001825  91.0429 269.0772 15.08797042 50686,6918.012,95.44,541.139,538.614,0.0
54012.0,STARLINK-5126,PAYLOAD,2023-09-01 19:22:09,15.08844418,0.0001732,53.2143,13.5134,97.5526,262.5663,9.3617e-05,1.202e-05,0.0,0 STARLINK-5126,1 54012U 22125BA  23244.80705540  .00001202  00000-0  93617-4 0  9993,2 54012  53.2143  13.5134 0001732  97.5526 262.5663 15.08844418 50789,6917.867,95.437,540.93,538.534,0.0
54012.0,STARLINK-5126,PAYLOAD,2023-09-02 08:05:15,15.08838303,0.0001887,53.2172,11.1289,96.3932,263.7275,8.41e-05,1.051e-05,0.0,0 STARLINK-5126,1 54012U 22125BA  23245.33698090  .00001051  00000-0  84100-4 0  9992,2 54012  53.2172  11.1289 0001887  96.3932 263.7275 15.08838303 50862,6917.886,95.438,541.056,538.445,0.0
54012.0,STARLINK-5126,PAYLOAD,2023-09-02 12:51:24,15.0884259,0.0001638,53.2177,10.2383,88.7987,271.3193,0.00011848,1.598e-05,0.0,0 STARLINK-5126,1 54012U 22125BA  23245.53569724  .00001598  00000-0  11848-3 0  9999,2 54012  53.2177  10.2383 0001638  88.7987 271.3193 15.08842590 50846,6917.872,95.437,540.871,538.604,0.0
54012.0,STARLINK-5126,PAYLOAD,2023-09-02 16:02:10,15.08851423,0.0001524,53.2183,9.644,78.8511,281.2653,0.0001202,1.626e-05,0.0,0 STARLINK-5126,1 54012U 22125BA  23245.66817153  .00001626  00000-0  12020-3 0  9990,2 54012  53.2183   9.6440 0001524  78.8511 281.2653 15.08851423 50910,6917.845,95.437,540.765,538.656,0.0
54012.0,STARLINK-5126,PAYLOAD,2023-09-03 07:56:01,15.08841547,0.0001323,53.2187,6.6719,87.0575,273.0568,0.00012054,1.631e-05,0.0,0 STARLINK-5126,1 54012U 22125BA  23246.33057493  .00001631  00000-0  12054-3 0  9991,2 54012  53.2187   6.6719 0001323  87.0575 273.0568 15.08841547 51011,6917.876,95.437,540.656,538.825,0.0
54012.0,STARLINK-5126,PAYLOAD,2023-09-03 14:17:33,15.08844495,0.0001355,53.2185,5.4817,88.7577,271.3571,0.00013151,1.806e-05,0.0,0 STARLINK-5126,1 54012U 22125BA  23246.59553210  .00001806  00000-0  13151-3 0  9990,2 54012  53.2185   5.4817 0001355  88.7577 271.3571 15.08844495 51009,6917.867,95.437,540.669,538.794,0.0
54012.0,STARLINK-5126,PAYLOAD,2023-09-04 07:46:49,15.08832856,0.0001602,53.2181,2.2103,86.9678,273.1497,1.9794e-05,2.7e-07,0.0,0 STARLINK-5126,1 54012U 22125BA  23247.32418373  .00000027  00000-0  19794-4 0  9996,2 54012  53.2181   2.2103 0001602  86.9678 273.1497 15.08832856 51167,6917.902,95.438,540.875,538.659,0.0
54012.0,STARLINK-5126,PAYLOAD,2023-09-04 10:57:35,15.08822572,0.0001609,53.2182,1.6124,118.7073,241.4081,0.00011659,1.567e-05,0.0,0 STARLINK-5126,1 54012U 22125BA  23247.45666641  .00001567  00000-0  11659-3 0  9994,2 54012  53.2182   1.6124 0001609 118.7073 241.4081 15.08822572 51132,6917.934,95.439,540.912,538.686,0.0
54012.0,STARLINK-5126,PAYLOAD,2023-09-05 01:16:04,15.08833155,0.0001222,53.2185,358.9405,84.2884,275.8248,-6.3966e-05,-1.306e-05,0.0,0 STARLINK-5126,1 54012U 22125BA  23248.05282756 -.00001306  00000-0 -63966-4 0  9994,2 54012  53.2185 358.9405 0001222  84.2884 275.8248 15.08833155 51273,6917.901,95.438,540.612,538.921,0.0
54012.0,STARLINK-5126,PAYLOAD,2023-09-05 10:48:22,15.0884108,0.0001412,53.2182,357.1569,78.6202,281.4949,6.0201e-05,6.7e-06,0.0,0 STARLINK-5126,1 54012U 22125BA  23248.45026073  .00000670  00000-0  60201-4 0  9996,2 54012  53.2182 357.1569 0001412  78.6202 281.4949 15.08841080 51338,6917.877,95.437,540.719,538.765,0.0
